STARLINK-3507           
1 51753U 22016AR  25057.39567364  .00000480  00000+0  48252-4 0  9990
2 51753  53.2185 198.3792 0001487  93.3378 266.7784 15.08841157167968
STARLINK-3457           
1 51754U 22016AS  25057.09292490 -.00000162  00000+0  79151-5 0  9994
2 51754  53.2179 199.4889 0001362  90.1823 269.9326 15.08846525167975
STARLINK-3460           
1 51755U 22016AT  25056.72128116  .00000508  00000+0  49988-4 0  9994
2 51755  53.2172 201.3962 0001556  81.7777 278.3392 15.08839770166793
STARLINK-3513           
1 51756U 22016AU  25057.08927445  .00002003  00000+0  14386-3 0  9992
2 51756  53.2160 199.7467 0001229  90.2437 269.8696 15.08847420167925
STARLINK-3459           
1 51757U 22016AV  25057.08655509  .00000292  00000+0  36410-4 0  9993
2 51757  53.2178 199.7673 0001192  84.1159 275.9969 15.08842259167977
STARLINK-3458           
1 51758U 22016AW  25057.40943483 -.00000610  00000+0 -20254-4 0  9996
2 51758  53.2166 198.2598 0001300  90.2377 269.8764 15.08836993168048
STARLINK-3456           
1 51759U 22016AX  25057.08193212 -.00001786  00000+0 -94182-4 0  9994
2 51759  53.2170 199.7779 0001312  83.9694 276.1448 15.08825465167990
STARLINK-3622           
1 51768U 22017A   25056.78108534 -.00000242  00000+0  28619-5 0  9992
2 51768  53.2186 231.1313 0001497 106.6538 253.4618 15.08834888167149
STARLINK-3621           
1 51769U 22017B   25056.77372316  .00000993  00000+0  80451-4 0  9996
2 51769  53.2157 231.1612 0001306  89.2211 270.8931 15.08837341165701
STARLINK-3612           
1 51770U 22017C   25056.77740574 -.00001621  00000+0 -83735-4 0  9992
2 51770  53.2162 231.1454 0001777  72.6017 287.5169 15.08844447165719
STARLINK-3614           
1 51771U 22017D   25057.16747555 -.00000082  00000+0  12959-4 0  9992
2 51771  53.2158 229.3831 0001205  86.8136 273.2994 15.08838105167217
STARLINK-3623           
1 51772U 22017E   25057.49131995  .00000308  00000+0  37441-4 0  9997
2 51772  53.2171 227.9408 0001346  84.5539 275.5607 15.08834649167311
STARLINK-3624           
1 51773U 22017F   25057.49595377 -.00000244  00000+0  27643-5 0  9990
2 51773  53.2160 227.8892 0001204  84.4223 275.6907 15.08833822167279
STARLINK-3629           
1 51774U 22017G   25056.75531743 -.00000619  00000+0 -20777-4 0  9993
2 51774  53.2161 231.2427 0001372  93.5754 266.5395 15.08844434165662
STARLINK-3620           
1 51775U 22017H   25056.76636023  .00000349  00000+0  40008-4 0  9999
2 51775  53.2178 231.1935 0001414  93.3095 266.8059 15.08836308165703
STARLINK-3608           
1 51776U 22017J   25057.48027929  .00000788  00000+0  67594-4 0  9995
2 51776  53.2169 227.9906 0001323  88.8089 271.3055 15.08840602167268
STARLINK-3625           
1 51777U 22017K   25057.08748206  .00005469  00000+0  36149-3 0  9992
2 51777  53.2149 229.7259 0001521  85.2395 274.8771 15.08837462167217
STARLINK-3615           
1 51778U 22017L   25056.75988942  .00003918  00000+0  26397-3 0  9990
2 51778  53.2167 221.0974 0001116  90.7074 269.4046 15.08856511165659
STARLINK-3611           
1 51779U 22017M   25057.48124503  .00002673  00000+0  18594-3 0  9994
2 51779  53.2167 228.0360 0001533  89.1299 270.9869 15.08841577167265
STARLINK-3617           
1 51780U 22017N   25056.80317168  .00004267  00000+0  28598-3 0  9998
2 51780  53.2156 231.0197 0001129  97.2794 262.8326 15.08842547165521
STARLINK-3580           
1 51781U 22017P   25056.74059720  .00000402  00000+0  43316-4 0  9992
2 51781  53.2170 231.2724 0001303  85.1649 274.9492 15.08838313165518
STARLINK-3616           
1 51782U 22017Q   25057.50514048 -.00000056  00000+0  14548-4 0  9998
2 51782  53.2144 238.0343 0001231  88.0915 272.0218 15.08839279167126
STARLINK-3628           
1 51783U 22017R   25057.20892434 -.00000634  00000+0 -21737-4 0  9995
2 51783  53.2176 229.2561 0001491  91.0650 269.0513 15.08838837167228
STARLINK-3632           
1 51784U 22017S   25057.48671967  .00001730  00000+0  12677-3 0  9990
2 51784  53.2135 237.9613 0001137  86.2816 273.8306 15.08838279167138
STARLINK-3646           
1 51785U 22017T   25057.46285508 -.00001464  00000+0 -73907-4 0  9991
2 51785  53.2174 228.0406 0001861  83.8843 276.2361 15.08825242167314
STARLINK-3638           
1 51786U 22017U   25056.81696436  .00000032  00000+0  20074-4 0  9991
2 51786  53.2179 240.9701 0001448  97.5686 262.5471 15.08836782165385
STARLINK-3619           
1 51787U 22017V   25056.76544296  .00000491  00000+0  48967-4 0  9992
2 51787  53.2165 241.2007 0001504  91.7594 268.3570 15.08837633165370
STARLINK-3641           
1 51788U 22017W   25056.80591608  .00000937  00000+0  76970-4 0  9997
2 51788  53.2166 241.0180 0001304  92.5333 267.5809 15.08840296167029
STARLINK-3639           
1 51789U 22017X   25057.48304357  .00000706  00000+0  62481-4 0  9992
2 51789  53.2175 237.9780 0001690  90.1964 269.9222 15.08839665167137
STARLINK-3631           
1 51790U 22017Y   25056.80223579  .00000917  00000+0  75673-4 0  9996
2 51790  53.2161 241.0338 0001197  84.7057 275.4071 15.08838449167079
STARLINK-3602           
1 51791U 22017Z   25056.81328375  .00000988  00000+0  80193-4 0  9999
2 51791  53.2182 240.9864 0001426  95.0716 265.0439 15.08833290167024
STARLINK-3626           
1 51792U 22017AA  25056.79488198  .00000656  00000+0  59285-4 0  9997
2 51792  53.2155 241.0648 0001319  92.4979 267.6164 15.08834576167076
STARLINK-3633           
1 51793U 22017AB  25056.81055836  .00000099  00000+0  24293-4 0  9992
2 51793  53.2168 241.0085 0001345  97.1184 262.9961 15.08835591167076
STARLINK-3573           
1 51794U 22017AC  25057.51615134  .00001642  00000+0  12117-3 0  9990
2 51794  53.2151 237.8282 0000922 100.8227 259.2869 15.08863482167134
STARLINK-3586           
1 51795U 22017AD  25056.80962032  .00000394  00000+0  42840-4 0  9994
2 51795  53.2167 241.1995 0001395  86.4182 273.6970 15.08842776167029
STARLINK-3634           
1 51798U 22017AG  25056.77279856  .00001399  00000+0  10596-3 0  9996
2 51798  53.2169 241.1655 0001546  92.9612 267.1557 15.08840323167064
STARLINK-3637           
1 51799U 22017AH  25057.51248018  .00000297  00000+0  36741-4 0  9993
2 51799  53.2174 237.8432 0001434  98.9368 261.1786 15.08837423167139
STARLINK-3592           
1 51801U 22017AK  25057.50880190 -.00001035  00000+0 -46948-4 0  9992
2 51801  53.2160 237.8604 0001419  90.3472 269.7683 15.08853047167134
STARLINK-3557           
1 51802U 22017AL  25057.49565063  .00058900  00000+0  34117-2 0  9994
2 51802  53.2142 237.5809 0001054 252.5844 107.5034 15.11672203167135
STARLINK-3544           
1 51803U 22017AM  25056.76912204  .00005300  00000+0  35084-3 0  9998
2 51803  53.2150 241.1828 0001302  95.8229 264.2912 15.08842000167011
STARLINK-3601           
1 51804U 22017AN  25056.71575283  .00004552  00000+0  30411-3 0  9993
2 51804  53.2159 221.4211 0001519 105.3868 254.7291 15.08818293167240
STARLINK-3605           
1 51805U 22017AP  25057.44809128  .00002368  00000+0  16683-3 0  9991
2 51805  53.2176 218.2110 0001444  95.4340 264.6816 15.08836641167445
STARLINK-3606           
1 51807U 22017AR  25057.46188590 -.00001422  00000+0 -71282-4 0  9997
2 51807  53.2164 228.0704 0001375  95.8257 264.2892 15.08838991167312
STARLINK-3609           
1 51808U 22017AS  25056.78476448  .00000729  00000+0  63876-4 0  9991
2 51808  53.2156 231.1125 0001339  87.7320 272.3825 15.08836629167061
STARLINK-3607           
1 51809U 22017AT  25057.45450751 -.00006289  00000+0 -37721-3 0  9994
2 51809  53.2179 228.0669 0000488  66.0559 294.0484 15.08859429167260
STARLINK-3613           
1 51810U 22017AU  25057.16106988  .00001034  00000+0  83053-4 0  9995
2 51810  53.2165 219.6436 0001149  84.7174 275.3949 15.08837640167359
STARLINK-3569           
1 51811U 22017AV  25056.78843777  .00001007  00000+0  81326-4 0  9998
2 51811  53.2176 231.0971 0001261  98.8297 261.2838 15.08838768167062
STARLINK-3610           
1 51812U 22017AW  25056.86295649 -.00000025  00000+0  16489-4 0  9995
2 51812  53.2168 220.7601 0001385  94.1649 265.9501 15.08839803167199
STARLINK-3552           
1 51813U 22017AX  25057.44072584 -.00000756  00000+0 -29392-4 0  9991
2 51813  53.2158 218.1963 0001610  87.9973 272.1204 15.08831533167396
STARLINK-3599           
1 51814U 22017AY  25056.72312078  .00000715  00000+0  62991-4 0  9992
2 51814  53.2163 221.3886 0001364  90.0745 270.0404 15.08834630167177
STARLINK-3604           
1 51815U 22017AZ  25056.72679957 -.00000990  00000+0 -44092-4 0  9994
2 51815  53.2164 221.3735 0001327  87.1417 272.9727 15.08845167167170
STARLINK-3603           
1 51816U 22017BA  25057.47114047 -.00006635  00000+0 -39902-3 0  9997
2 51816  53.2162 218.2713 0001307  83.8141 276.3000 15.08853606167455
STARLINK-3542           
1 51852U 22022A   25057.27787893  .00001477  00000+0  11090-3 0  9991
2 51852  53.2161 268.9000 0001508  92.9528 267.1637 15.08830027166183
STARLINK-3539           
1 51853U 22022B   25057.31095118  .00000681  00000+0  60846-4 0  9999
2 51853  53.2172 268.3643 0001408  87.0465 273.0689 15.08843361166141
STARLINK-3541           
1 51854U 22022C   25056.87676166  .00001468  00000+0  11033-3 0  9995
2 51854  53.2154 270.7013 0001330  89.0976 271.0168 15.08838918166134
STARLINK-3545           
1 51855U 22022D   25056.86202683  .00001373  00000+0  10434-3 0  9993
2 51855  53.2155 270.6876 0001536  94.7490 265.3677 15.08845601166086
STARLINK-3568           
1 51856U 22022E   25056.87403310 -.00001326  00000+0 -65273-4 0  9997
2 51856  53.2153 270.7231 0001434  95.1289 264.9867 15.08835090166165
STARLINK-3571           
1 51857U 22022F   25056.86300344  .00000607  00000+0  56198-4 0  9995
2 51857  53.2162 270.7718 0001533  88.0187 272.0980 15.08848959166135
STARLINK-3563           
1 51858U 22022G   25056.86571651  .00000616  00000+0  56800-4 0  9997
2 51858  53.2168 270.7473 0001352 100.2491 259.8654 15.08840049166137
